KUIPER-00290
1 68592U 26072V   26105.49357890  .00010040  00000+0  29194-3 0  9998
2 68592  51.8640 120.2327 0010926 156.2550 203.8942 15.36018761  1732
KUIPER-00293
1 68593U 26072W   26105.56121180  .00010106  00000+0  29650-3 0  9998
2 68593  51.8637 119.9349 0011786 162.4130 197.7266 15.35719225  1749
KUIPER-00294
1 68594U 26072X   26105.55709067  .00010008  00000+0  28892-3 0  9992
2 68594  51.8677 119.9103 0009614 156.3237 203.8193 15.36262917  1749
KUIPER-00296
1 68595U 26072Y   26105.48933507  .00010224  00000+0  29135-3 0  9994
2 68595  51.8698 120.2074 0008433 149.6764 210.4712 15.36652536  1733
KUIPER-00297
1 68596U 26072Z   26105.49285232  .00001935  00000+0  65011-4 0  9994
2 68596  51.8626 120.2273 0009891 156.9895 203.1536 15.36116198  1733
KUIPER-00300
1 68597U 26072AA  26105.55294225  .00006978  00000+0  20121-3 0  9998
2 68597  51.8671 119.8836 0008019 149.7422 210.4029 15.36834645  1743
KUIPER-00301
1 68598U 26072AB  26105.55524782  .00007099  00000+0  20661-3 0  9997
2 68598  51.8649 119.8975 0008699 153.1511 206.9927 15.36508666  1743
KUIPER-00304
1 68599U 26072AC  26105.55589240  .00007089  00000+0  20689-3 0  9997
2 68599  51.8662 119.9020 0009353 152.9538 207.1937 15.36417085  1743
KUIPER-00317
1 68600U 26072AD  26105.55372467  .00006829  00000+0  19775-3 0  9996
2 68600  51.8684 119.8888 0008453 145.1378 215.0164 15.36735971  1744
KUIPER-00320
1 68601U 26072AE  26105.55966857  .00007193  00000+0  21296-3 0  9995
2 68601  51.8602 119.9226 0011083 159.3091 200.8346 15.35925869  1744
STP-S29A OBJECT A
1 68627U 26074A   26105.59711160  .00005487  00000+0  24091-3 0  9994
2 68627  60.0190  58.2873 0016308 314.1670  45.8068 15.23216962  1245
STP-S29A OBJECT B
1 68628U 26074B   26105.59652174  .00004251  00000+0  18893-3 0  9995
2 68628  60.0238  58.2950 0014727 317.1945  42.7988 15.23316829  1235
RAWHIDE-1
1 68629U 26074C   26105.59428867  .00006406  00000+0  27461-3 0  9991
2 68629  60.0226  58.2817 0018131 323.0578  36.9253 15.23756026  1244
STP-S29A OBJECT D
1 68630U 26074D   26105.26463145  .00003031  00000+0  13527-3 0  9994
2 68630  60.0228  59.5323 0016112 327.5809  32.4280 15.24032029  1182
STP-S29A OBJECT E
1 68631U 26074E   26105.13335315  .00002949  00000+0  13185-3 0  9995
2 68631  60.0224  60.0335 0016672 327.1845  32.8199 15.24043657  1177
