[{"OBJECT_NAME":"KUIPER-00290","OBJECT_ID":"2026-072V","EPOCH":"2026-04-15T11:50:45.216960","MEAN_MOTION":15.36018761,"ECCENTRICITY":0.00109265,"INCLINATION":51.864,"RA_OF_ASC_NODE":120.2327,"ARG_OF_PERICENTER":156.255,"MEAN_ANOMALY":203.8942,"EPHEMERIS_TYPE":0,"CLASSIFICATION_TYPE":"U","NORAD_CAT_ID":68592,"ELEMENT_SET_NO":999,"REV_AT_EPOCH":173,"BSTAR":0.00029193651,"MEAN_MOTION_DOT":0.0001004,"MEAN_MOTION_DDOT":0},{"OBJECT_NAME":"KUIPER-00293","OBJECT_ID":"2026-072W","EPOCH":"2026-04-15T13:28:08.699520","MEAN_MOTION":15.35719225,"ECCENTRICITY":0.00117863,"INCLINATION":51.8637,"RA_OF_ASC_NODE":119.9349,"ARG_OF_PERICENTER":162.413,"MEAN_ANOMALY":197.7266,"EPHEMERIS_TYPE":0,"CLASSIFICATION_TYPE":"U","NORAD_CAT_ID":68593,"ELEMENT_SET_NO":999,"REV_AT_EPOCH":174,"BSTAR":0.00029650305,"MEAN_MOTION_DOT":0.00010106,"MEAN_MOTION_DDOT":0},{"OBJECT_NAME":"KUIPER-00294","OBJECT_ID":"2026-072X","EPOCH":"2026-04-15T13:22:12.633888","MEAN_MOTION":15.36262917,"ECCENTRICITY":0.00096142,"INCLINATION":51.8677,"RA_OF_ASC_NODE":119.9103,"ARG_OF_PERICENTER":156.3237,"MEAN_ANOMALY":203.8193,"EPHEMERIS_TYPE":0,"CLASSIFICATION_TYPE":"U","NORAD_CAT_ID":68594,"ELEMENT_SET_NO":999,"REV_AT_EPOCH":174,"BSTAR":0.00028892199,"MEAN_MOTION_DOT":0.00010008,"MEAN_MOTION_DDOT":0},{"OBJECT_NAME":"KUIPER-00296","OBJECT_ID":"2026-072Y","EPOCH":"2026-04-15T11:44:38.550048","MEAN_MOTION":15.36652536,"ECCENTRICITY":0.00084332,"INCLINATION":51.8698,"RA_OF_ASC_NODE":120.2074,"ARG_OF_PERICENTER":149.6764,"MEAN_ANOMALY":210.4712,"EPHEMERIS_TYPE":0,"CLASSIFICATION_TYPE":"U","NORAD_CAT_ID":68595,"ELEMENT_SET_NO":999,"REV_AT_EPOCH":173,"BSTAR":0.0002913504,"MEAN_MOTION_DOT":0.00010224,"MEAN_MOTION_DDOT":0},{"OBJECT_NAME":"KUIPER-00297","OBJECT_ID":"2026-072Z","EPOCH":"2026-04-15T11:49:42.440448","MEAN_MOTION":15.36116198,"ECCENTRICITY":0.00098912,"INCLINATION":51.8626,"RA_OF_ASC_NODE":120.2273,"ARG_OF_PERICENTER":156.9895,"MEAN_ANOMALY":203.1536,"EPHEMERIS_TYPE":0,"CLASSIFICATION_TYPE":"U","NORAD_CAT_ID":68596,"ELEMENT_SET_NO":999,"REV_AT_EPOCH":173,"BSTAR":6.501129e-5,"MEAN_MOTION_DOT":1.935e-5,"MEAN_MOTION_DDOT":0},{"OBJECT_NAME":"KUIPER-00300","OBJECT_ID":"2026-072AA","EPOCH":"2026-04-15T13:16:14.210400","MEAN_MOTION":15.36834645,"ECCENTRICITY":0.00080194,"INCLINATION":51.8671,"RA_OF_ASC_NODE":119.8836,"ARG_OF_PERICENTER":149.7422,"MEAN_ANOMALY":210.4029,"EPHEMERIS_TYPE":0,"CLASSIFICATION_TYPE":"U","NORAD_CAT_ID":68597,"ELEMENT_SET_NO":999,"REV_AT_EPOCH":174,"BSTAR":0.00020120811,"MEAN_MOTION_DOT":6.978e-5,"MEAN_MOTION_DDOT":0},{"OBJECT_NAME":"KUIPER-00301","OBJECT_ID":"2026-072AB","EPOCH":"2026-04-15T13:19:33.411648","MEAN_MOTION":15.36508666,"ECCENTRICITY":0.0008699,"INCLINATION":51.8649,"RA_OF_ASC_NODE":119.8975,"ARG_OF_PERICENTER":153.1511,"MEAN_ANOMALY":206.9927,"EPHEMERIS_TYPE":0,"CLASSIFICATION_TYPE":"U","NORAD_CAT_ID":68598,"ELEMENT_SET_NO":999,"REV_AT_EPOCH":174,"BSTAR":0.00020660507,"MEAN_MOTION_DOT":7.099e-5,"MEAN_MOTION_DDOT":0},{"OBJECT_NAME":"KUIPER-00304","OBJECT_ID":"2026-072AC","EPOCH":"2026-04-15T13:20:29.103360","MEAN_MOTION":15.36417085,"ECCENTRICITY":0.00093539,"INCLINATION":51.8662,"RA_OF_ASC_NODE":119.902,"ARG_OF_PERICENTER":152.9538,"MEAN_ANOMALY":207.1937,"EPHEMERIS_TYPE":0,"CLASSIFICATION_TYPE":"U","NORAD_CAT_ID":68599,"ELEMENT_SET_NO":999,"REV_AT_EPOCH":174,"BSTAR":0.00020689097,"MEAN_MOTION_DOT":7.089e-5,"MEAN_MOTION_DDOT":0},{"OBJECT_NAME":"KUIPER-00317","OBJECT_ID":"2026-072AD","EPOCH":"2026-04-15T13:17:21.811488","MEAN_MOTION":15.36735971,"ECCENTRICITY":0.00084537,"INCLINATION":51.8684,"RA_OF_ASC_NODE":119.8888,"ARG_OF_PERICENTER":145.1378,"MEAN_ANOMALY":215.0164,"EPHEMERIS_TYPE":0,"CLASSIFICATION_TYPE":"U","NORAD_CAT_ID":68600,"ELEMENT_SET_NO":999,"REV_AT_EPOCH":174,"BSTAR":0.00019775296,"MEAN_MOTION_DOT":6.829e-5,"MEAN_MOTION_DDOT":0},{"OBJECT_NAME":"KUIPER-00320","OBJECT_ID":"2026-072AE","EPOCH":"2026-04-15T13:25:55.364448","MEAN_MOTION":15.35925869,"ECCENTRICITY":0.00110834,"INCLINATION":51.8602,"RA_OF_ASC_NODE":119.9226,"ARG_OF_PERICENTER":159.3091,"MEAN_ANOMALY":200.8346,"EPHEMERIS_TYPE":0,"CLASSIFICATION_TYPE":"U","NORAD_CAT_ID":68601,"ELEMENT_SET_NO":999,"REV_AT_EPOCH":174,"BSTAR":0.00021296304,"MEAN_MOTION_DOT":7.193e-5,"MEAN_MOTION_DDOT":0},{"OBJECT_NAME":"STP-S29A OBJECT A","OBJECT_ID":"2026-074A","EPOCH":"2026-04-15T14:19:50.442240","MEAN_MOTION":15.23216962,"ECCENTRICITY":0.00163085,"INCLINATION":60.019,"RA_OF_ASC_NODE":58.2873,"ARG_OF_PERICENTER":314.167,"MEAN_ANOMALY":45.8068,"EPHEMERIS_TYPE":0,"CLASSIFICATION_TYPE":"U","NORAD_CAT_ID":68627,"ELEMENT_SET_NO":999,"REV_AT_EPOCH":124,"BSTAR":0.00024091363,"MEAN_MOTION_DOT":5.487e-5,"MEAN_MOTION_DDOT":0},{"OBJECT_NAME":"STP-S29A OBJECT B","OBJECT_ID":"2026-074B","EPOCH":"2026-04-15T14:18:59.478336","MEAN_MOTION":15.23316829,"ECCENTRICITY":0.00147279,"INCLINATION":60.0238,"RA_OF_ASC_NODE":58.295,"ARG_OF_PERICENTER":317.1945,"MEAN_ANOMALY":42.7988,"EPHEMERIS_TYPE":0,"CLASSIFICATION_TYPE":"U","NORAD_CAT_ID":68628,"ELEMENT_SET_NO":999,"REV_AT_EPOCH":123,"BSTAR":0.00018893015,"MEAN_MOTION_DOT":4.251e-5,"MEAN_MOTION_DDOT":0},{"OBJECT_NAME":"RAWHIDE-1","OBJECT_ID":"2026-074C","EPOCH":"2026-04-15T14:15:46.541088","MEAN_MOTION":15.23756026,"ECCENTRICITY":0.00181316,"INCLINATION":60.0226,"RA_OF_ASC_NODE":58.2817,"ARG_OF_PERICENTER":323.0578,"MEAN_ANOMALY":36.9253,"EPHEMERIS_TYPE":0,"CLASSIFICATION_TYPE":"U","NORAD_CAT_ID":68629,"ELEMENT_SET_NO":999,"REV_AT_EPOCH":124,"BSTAR":0.00027460991,"MEAN_MOTION_DOT":6.406e-5,"MEAN_MOTION_DDOT":0},{"OBJECT_NAME":"STP-S29A OBJECT D","OBJECT_ID":"2026-074D","EPOCH":"2026-04-15T06:21:04.157280","MEAN_MOTION":15.24032029,"ECCENTRICITY":0.0016112,"INCLINATION":60.0228,"RA_OF_ASC_NODE":59.5323,"ARG_OF_PERICENTER":327.5809,"MEAN_ANOMALY":32.428,"EPHEMERIS_TYPE":0,"CLASSIFICATION_TYPE":"U","NORAD_CAT_ID":68630,"ELEMENT_SET_NO":999,"REV_AT_EPOCH":118,"BSTAR":0.00013527,"MEAN_MOTION_DOT":3.031e-5,"MEAN_MOTION_DDOT":0},{"OBJECT_NAME":"STP-S29A OBJECT E","OBJECT_ID":"2026-074E","EPOCH":"2026-04-15T03:12:01.712160","MEAN_MOTION":15.24043657,"ECCENTRICITY":0.00166724,"INCLINATION":60.0224,"RA_OF_ASC_NODE":60.0335,"ARG_OF_PERICENTER":327.1845,"MEAN_ANOMALY":32.8199,"EPHEMERIS_TYPE":0,"CLASSIFICATION_TYPE":"U","NORAD_CAT_ID":68631,"ELEMENT_SET_NO":999,"REV_AT_EPOCH":117,"BSTAR":0.00013184871,"MEAN_MOTION_DOT":2.949e-5,"MEAN_MOTION_DDOT":0}]
